1 08820U 76039A   03317.81403735 -.00000001  00000-0  10000-3 0  9815
2 08820 109.8282 232.8158 0044429 269.4329  90.1230  6.38664632386610
